STARLINK-1781
1 16685C 20073R   21326.14050951 -.00021175  00000-0 -14187-2 0  3265
2 16685  53.0564  98.0969 0001546  79.1190  45.6064 15.06420196    18
